{"type":"FeatureCollection","features":[
 {"type":"Feature","id":"ahnqiraj-focus-research","properties":{"name":"Ahn'Qiraj (approximate atlas focus)","contentStatus":"research","styleRole":"site","geographicCertainty":"approximate"},"geometry":{"type":"Point","coordinates":[2600,1700]}},
 {"type":"Feature","id":"adventurers-ahnqiraj-focus-research","properties":{"name":"Adventurer coalition narrative focus","contentStatus":"research","styleRole":"site","geographicCertainty":"unknown"},"geometry":{"type":"Point","coordinates":[3200,2200]}},
 {"type":"Feature","id":"old-gods-ahnqiraj-focus-research","properties":{"name":"C'Thun and Old God threat narrative focus","contentStatus":"research","styleRole":"site","geographicCertainty":"unknown"},"geometry":{"type":"Point","coordinates":[2300,2100]}},
 {"type":"Feature","id":"outland-era-eight-focus-research","properties":{"name":"Outland expedition theater (broad)","contentStatus":"research","styleRole":"influence","geographicCertainty":"inferred"},"geometry":{"type":"Polygon","coordinates":[[[1200,1800],[1800,8000],[5100,9000],[8800,7000],[8300,1900],[1200,1800]]]}},
 {"type":"Feature","id":"adventurers-outland-focus-research","properties":{"name":"Adventurer Outland narrative focus","contentStatus":"research","styleRole":"site","geographicCertainty":"unknown"},"geometry":{"type":"Point","coordinates":[5200,4700]}},
 {"type":"Feature","id":"illidan-outland-era-eight-focus-research","properties":{"name":"Illidan Outland-era narrative focus","contentStatus":"research","styleRole":"site","geographicCertainty":"unknown"},"geometry":{"type":"Point","coordinates":[6200,5200]}},
 {"type":"Feature","id":"northrend-era-eight-region-research","properties":{"name":"Northrend campaign (broad approximate extent)","contentStatus":"research","styleRole":"influence","geographicCertainty":"approximate"},"geometry":{"type":"Polygon","coordinates":[[[3800,7600],[4200,9600],[6800,9700],[7200,7900],[6000,7200],[3800,7600]]]}},
 {"type":"Feature","id":"icecrown-era-eight-focus-research","properties":{"name":"Icecrown (approximate atlas focus)","contentStatus":"research","styleRole":"site","geographicCertainty":"approximate"},"geometry":{"type":"Point","coordinates":[5200,8800]}},
 {"type":"Feature","id":"arthas-era-eight-focus-research","properties":{"name":"Arthas final-reign narrative focus","contentStatus":"research","styleRole":"site","geographicCertainty":"unknown"},"geometry":{"type":"Point","coordinates":[5500,8500]}},
 {"type":"Feature","id":"adventurers-northrend-focus-research","properties":{"name":"Northrend coalition narrative focus","contentStatus":"research","styleRole":"site","geographicCertainty":"unknown"},"geometry":{"type":"Point","coordinates":[4700,8200]}},
 {"type":"Feature","id":"scourge-northrend-era-eight-focus-research","properties":{"name":"Scourge Northrend narrative focus","contentStatus":"research","styleRole":"site","geographicCertainty":"unknown"},"geometry":{"type":"Point","coordinates":[6100,8300]}},
 {"type":"Feature","id":"cataclysm-global-region-research","properties":{"name":"Cataclysm world-change emphasis","contentStatus":"research","styleRole":"influence","geographicCertainty":"inferred"},"geometry":{"type":"Polygon","coordinates":[[[500,700],[800,9300],[9300,9500],[9600,900],[500,700]]]}},
 {"type":"Feature","id":"deathwing-cataclysm-focus-research","properties":{"name":"Deathwing Cataclysm narrative focus","contentStatus":"research","styleRole":"site","geographicCertainty":"unknown"},"geometry":{"type":"Point","coordinates":[6800,4300]}},
 {"type":"Feature","id":"adventurers-cataclysm-focus-research","properties":{"name":"World defense narrative focus","contentStatus":"research","styleRole":"site","geographicCertainty":"unknown"},"geometry":{"type":"Point","coordinates":[5000,4700]}},
 {"type":"Feature","id":"pandaria-era-eight-focus-research","properties":{"name":"Pandaria (approximate atlas focus)","contentStatus":"research","styleRole":"site","geographicCertainty":"approximate"},"geometry":{"type":"Point","coordinates":[6100,900]}},
 {"type":"Feature","id":"orgrimmar-siege-focus-research","properties":{"name":"Orgrimmar siege (approximate narrative focus)","contentStatus":"research","styleRole":"site","geographicCertainty":"approximate"},"geometry":{"type":"Point","coordinates":[3100,5200]}},
 {"type":"Feature","id":"adventurers-pandaria-focus-research","properties":{"name":"Pandaria expedition narrative focus","contentStatus":"research","styleRole":"site","geographicCertainty":"unknown"},"geometry":{"type":"Point","coordinates":[5600,1500]}},
 {"type":"Feature","id":"new-horde-pandaria-focus-research","properties":{"name":"New Horde Pandaria-era narrative focus","contentStatus":"research","styleRole":"site","geographicCertainty":"unknown"},"geometry":{"type":"Point","coordinates":[3500,4700]}},
 {"type":"Feature","id":"thrall-pandaria-focus-research","properties":{"name":"Thrall Siege-era narrative focus","contentStatus":"research","styleRole":"site","geographicCertainty":"unknown"},"geometry":{"type":"Point","coordinates":[3000,4300]}},
 {"type":"Feature","id":"jaina-pandaria-focus-research","properties":{"name":"Jaina Siege-era narrative focus","contentStatus":"research","styleRole":"site","geographicCertainty":"unknown"},"geometry":{"type":"Point","coordinates":[4100,4300]}},
 {"type":"Feature","id":"alternate-draenor-region-research","properties":{"name":"Alternate Draenor campaign theater (broad)","contentStatus":"research","styleRole":"influence","geographicCertainty":"inferred"},"geometry":{"type":"Polygon","coordinates":[[[900,900],[1100,9000],[9000,9200],[9400,1100],[900,900]]]}},
 {"type":"Feature","id":"iron-horde-focus-research","properties":{"name":"Iron Horde narrative focus","contentStatus":"research","styleRole":"site","geographicCertainty":"unknown"},"geometry":{"type":"Point","coordinates":[6200,5200]}},
 {"type":"Feature","id":"adventurers-alternate-draenor-focus-research","properties":{"name":"Alternate Draenor expedition narrative focus","contentStatus":"research","styleRole":"site","geographicCertainty":"unknown"},"geometry":{"type":"Point","coordinates":[4300,4200]}},
 {"type":"Feature","id":"broken-isles-era-eight-focus-research","properties":{"name":"Broken Isles (approximate atlas focus)","contentStatus":"research","styleRole":"site","geographicCertainty":"approximate"},"geometry":{"type":"Point","coordinates":[4700,6100]}},
 {"type":"Feature","id":"legion-broken-isles-focus-research","properties":{"name":"Burning Legion invasion focus","contentStatus":"research","styleRole":"site","geographicCertainty":"unknown"},"geometry":{"type":"Point","coordinates":[5200,6500]}},
 {"type":"Feature","id":"class-orders-focus-research","properties":{"name":"Class Orders narrative focus","contentStatus":"research","styleRole":"site","geographicCertainty":"unknown"},"geometry":{"type":"Point","coordinates":[4300,5700]}},
 {"type":"Feature","id":"illidan-legion-focus-research","properties":{"name":"Illidan Legion-campaign narrative focus","contentStatus":"research","styleRole":"site","geographicCertainty":"unknown"},"geometry":{"type":"Point","coordinates":[5600,5600]}}
]}
