{
  "type": "FeatureCollection",
  "name": "long-vigil-new-kingdoms-research-cartography",
  "features": [
    {"type":"Feature","id":"hyjal-era-five-focus-research","properties":{"name":"Mount Hyjal (approximate atlas focus)","contentStatus":"research","styleRole":"site","geographicCertainty":"approximate"},"geometry":{"type":"Point","coordinates":[2350,6900]}},
    {"type":"Feature","id":"hyjal-second-well-focus-research","properties":{"name":"Second Well of Eternity (approximate Hyjal focus)","contentStatus":"research","styleRole":"site","geographicCertainty":"approximate"},"geometry":{"type":"Point","coordinates":[2550,6550]}},
    {"type":"Feature","id":"nordrassil-focus-research","properties":{"name":"Nordrassil (approximate Hyjal focus)","contentStatus":"research","styleRole":"site","geographicCertainty":"approximate"},"geometry":{"type":"Point","coordinates":[2200,7350]}},
    {"type":"Feature","id":"long-vigil-kaldorei-focus-research","properties":{"name":"Long Vigil kaldorei narrative focus","contentStatus":"research","styleRole":"site","geographicCertainty":"unknown"},"geometry":{"type":"Point","coordinates":[3350,7100]}},
    {"type":"Feature","id":"malfurion-long-vigil-focus-research","properties":{"name":"Malfurion Long Vigil narrative focus","contentStatus":"research","styleRole":"site","geographicCertainty":"unknown"},"geometry":{"type":"Point","coordinates":[1750,6500]}},
    {"type":"Feature","id":"tyrande-long-vigil-focus-research","properties":{"name":"Tyrande Long Vigil narrative focus","contentStatus":"research","styleRole":"site","geographicCertainty":"unknown"},"geometry":{"type":"Point","coordinates":[3350,6200]}},
    {"type":"Feature","id":"illidan-long-vigil-focus-research","properties":{"name":"Illidan postwar narrative focus","contentStatus":"research","styleRole":"site","geographicCertainty":"unknown"},"geometry":{"type":"Point","coordinates":[2550,5750]}},
    {"type":"Feature","id":"highborne-eastward-migration-route-research","properties":{"name":"Highborne eastward migration (interpretive)","contentStatus":"research","styleRole":"route","geographicCertainty":"inferred"},"geometry":{"type":"LineString","coordinates":[[2500,6650],[3600,6200],[4850,6000],[6100,6500],[7350,7200],[8150,7800]]}},
    {"type":"Feature","id":"highborne-exiles-migration-focus-research","properties":{"name":"Highborne exile narrative focus","contentStatus":"research","styleRole":"site","geographicCertainty":"unknown"},"geometry":{"type":"Point","coordinates":[4650,6500]}},
    {"type":"Feature","id":"dathremar-migration-focus-research","properties":{"name":"Dath'Remar migration narrative focus","contentStatus":"research","styleRole":"site","geographicCertainty":"unknown"},"geometry":{"type":"Point","coordinates":[5850,7000]}},
    {"type":"Feature","id":"quelthalas-influence-region-research","properties":{"name":"Quel'Thalas influence (broad reconstruction)","contentStatus":"research","styleRole":"influence","geographicCertainty":"inferred"},"geometry":{"type":"Polygon","coordinates":[[[7650,6900],[8200,6850],[8750,7250],[8850,8250],[8250,8700],[7700,8300],[7550,7550],[7650,6900]]]}},
    {"type":"Feature","id":"quelthalas-focus-research","properties":{"name":"Quel'Thalas narrative focus","contentStatus":"research","styleRole":"site","geographicCertainty":"unknown"},"geometry":{"type":"Point","coordinates":[8250,7750]}},
    {"type":"Feature","id":"sunwell-focus-research","properties":{"name":"Sunwell (approximate atlas focus)","contentStatus":"research","styleRole":"site","geographicCertainty":"approximate"},"geometry":{"type":"Point","coordinates":[8450,8300]}},
    {"type":"Feature","id":"amani-influence-region-research","properties":{"name":"Amani influence (broad reconstruction)","contentStatus":"research","styleRole":"influence","geographicCertainty":"inferred"},"geometry":{"type":"Polygon","coordinates":[[[7000,6400],[7700,6300],[8350,6800],[8250,7700],[7550,7900],[7000,7350],[7000,6400]]]}},
    {"type":"Feature","id":"amani-focus-research","properties":{"name":"Amani narrative focus","contentStatus":"research","styleRole":"site","geographicCertainty":"unknown"},"geometry":{"type":"Point","coordinates":[7300,7000]}},
    {"type":"Feature","id":"arathor-influence-region-research","properties":{"name":"Arathor influence (broad reconstruction)","contentStatus":"research","styleRole":"influence","geographicCertainty":"inferred"},"geometry":{"type":"Polygon","coordinates":[[[6000,4300],[6800,4050],[7700,4700],[7900,5900],[7350,6650],[6400,6400],[5900,5350],[6000,4300]]]}},
    {"type":"Feature","id":"arathor-focus-research","properties":{"name":"Arathor narrative focus","contentStatus":"research","styleRole":"site","geographicCertainty":"unknown"},"geometry":{"type":"Point","coordinates":[6800,5600]}},
    {"type":"Feature","id":"thoradin-focus-research","properties":{"name":"Thoradin narrative focus","contentStatus":"research","styleRole":"site","geographicCertainty":"unknown"},"geometry":{"type":"Point","coordinates":[6150,5050]}},
    {"type":"Feature","id":"strom-focus-research","properties":{"name":"Strom (approximate atlas focus)","contentStatus":"research","styleRole":"site","geographicCertainty":"approximate"},"geometry":{"type":"Point","coordinates":[7000,5900]}},
    {"type":"Feature","id":"seven-kingdoms-influence-region-research","properties":{"name":"Seven human kingdoms (broad late-era reconstruction)","contentStatus":"research","styleRole":"influence","geographicCertainty":"inferred"},"geometry":{"type":"Polygon","coordinates":[[[5850,3000],[6800,2500],[8350,3000],[9000,4400],[8850,6700],[7800,7350],[6500,6800],[5850,5200],[5850,3000]]]}},
    {"type":"Feature","id":"seven-kingdoms-focus-research","properties":{"name":"Seven kingdoms narrative focus","contentStatus":"research","styleRole":"site","geographicCertainty":"unknown"},"geometry":{"type":"Point","coordinates":[7600,5200]}},
    {"type":"Feature","id":"ironforge-focus-research","properties":{"name":"Ironforge (approximate atlas focus)","contentStatus":"research","styleRole":"site","geographicCertainty":"approximate"},"geometry":{"type":"Point","coordinates":[7200,3900]}},
    {"type":"Feature","id":"grim-batol-focus-research","properties":{"name":"Grim Batol (approximate atlas focus)","contentStatus":"research","styleRole":"site","geographicCertainty":"approximate"},"geometry":{"type":"Point","coordinates":[8250,4650]}},
    {"type":"Feature","id":"thaurissan-city-focus-research","properties":{"name":"Thaurissan (approximate atlas focus)","contentStatus":"research","styleRole":"site","geographicCertainty":"approximate"},"geometry":{"type":"Point","coordinates":[6900,2750]}},
    {"type":"Feature","id":"dwarven-clans-focus-research","properties":{"name":"Dwarven clans narrative focus","contentStatus":"research","styleRole":"site","geographicCertainty":"unknown"},"geometry":{"type":"Point","coordinates":[7600,3900]}},
    {"type":"Feature","id":"dwarven-clan-dispersal-route-research","properties":{"name":"Dwarven clan dispersal (interpretive)","contentStatus":"research","styleRole":"route","geographicCertainty":"inferred"},"geometry":{"type":"LineString","coordinates":[[7200,3900],[7750,4300],[8250,4650],[7700,3950],[7250,3350],[6900,2750]]}},
    {"type":"Feature","id":"ragnaros-era-five-focus-research","properties":{"name":"Ragnaros return narrative focus","contentStatus":"research","styleRole":"site","geographicCertainty":"unknown"},"geometry":{"type":"Point","coordinates":[6600,2350]}}
  ]
}
