{
  "type": "FeatureCollection",
  "name": "ordering-of-azeroth-research-cartography",
  "features": [
    {
      "type": "Feature",
      "id": "ordered-kalimdor-landmass-research",
      "properties": {
        "name": "Ordered Kalimdor (interpretive extent)",
        "contentStatus": "research",
        "styleRole": "landmass",
        "geographicCertainty": "inferred"
      },
      "geometry": {
        "type": "Polygon",
        "coordinates": [[
          [900, 1700], [1800, 900], [3500, 1100], [5100, 500],
          [6900, 1100], [8500, 2300], [9200, 4100], [8300, 5700],
          [9000, 7400], [7500, 9000], [5700, 8500], [4300, 9500],
          [2600, 8700], [1200, 7100], [1500, 5200], [700, 3400],
          [900, 1700]
        ]]
      }
    },
    {
      "type": "Feature",
      "id": "well-of-eternity-focus-research",
      "properties": {
        "name": "Well of Eternity (approximate central focus)",
        "contentStatus": "research",
        "styleRole": "site",
        "geographicCertainty": "approximate"
      },
      "geometry": { "type": "Point", "coordinates": [5100, 5050] }
    },
    {
      "type": "Feature",
      "id": "ulduar-focus-research",
      "properties": {
        "name": "Ulduar (inferred far-northern focus)",
        "contentStatus": "research",
        "styleRole": "site",
        "geographicCertainty": "inferred"
      },
      "geometry": { "type": "Point", "coordinates": [5050, 8550] }
    },
    {
      "type": "Feature",
      "id": "forge-of-origination-focus-research",
      "properties": {
        "name": "Forge of Origination (inferred far-southern focus)",
        "contentStatus": "research",
        "styleRole": "site",
        "geographicCertainty": "inferred"
      },
      "geometry": { "type": "Point", "coordinates": [6250, 1500] }
    },
    {
      "type": "Feature",
      "id": "aggramar-ordering-focus-research",
      "properties": {
        "name": "Aggramar narrative focus",
        "contentStatus": "research",
        "styleRole": "site",
        "geographicCertainty": "unknown"
      },
      "geometry": { "type": "Point", "coordinates": [3000, 7600] }
    },
    {
      "type": "Feature",
      "id": "pantheon-ordering-focus-research",
      "properties": {
        "name": "Pantheon narrative focus",
        "contentStatus": "research",
        "styleRole": "site",
        "geographicCertainty": "unknown"
      },
      "geometry": { "type": "Point", "coordinates": [4150, 7450] }
    },
    {
      "type": "Feature",
      "id": "amanthul-ordering-focus-research",
      "properties": {
        "name": "Aman’Thul narrative focus",
        "contentStatus": "research",
        "styleRole": "site",
        "geographicCertainty": "unknown"
      },
      "geometry": { "type": "Point", "coordinates": [4300, 5250] }
    },
    {
      "type": "Feature",
      "id": "yshaarj-ordering-focus-research",
      "properties": {
        "name": "Y'Shaarj narrative focus",
        "contentStatus": "research",
        "styleRole": "site",
        "geographicCertainty": "unknown"
      },
      "geometry": { "type": "Point", "coordinates": [5650, 5000] }
    },
    {
      "type": "Feature",
      "id": "titan-forged-ordering-focus-research",
      "properties": {
        "name": "Titan-forged narrative focus",
        "contentStatus": "research",
        "styleRole": "site",
        "geographicCertainty": "unknown"
      },
      "geometry": { "type": "Point", "coordinates": [3500, 4300] }
    },
    {
      "type": "Feature",
      "id": "keepers-ordering-focus-research",
      "properties": {
        "name": "Keepers narrative focus",
        "contentStatus": "research",
        "styleRole": "site",
        "geographicCertainty": "unknown"
      },
      "geometry": { "type": "Point", "coordinates": [6250, 6800] }
    },
    {
      "type": "Feature",
      "id": "old-gods-containment-focus-research",
      "properties": {
        "name": "Old God containment narrative focus",
        "contentStatus": "research",
        "styleRole": "site",
        "geographicCertainty": "unknown"
      },
      "geometry": { "type": "Point", "coordinates": [7000, 3900] }
    }
  ]
}
