{
  "type": "FeatureCollection",
  "features": [
    {"type":"Feature","id":"orc-clans-draenor-region-research","properties":{"name":"Orc clan homelands (broad reconstruction)","contentStatus":"research","styleRole":"influence","geographicCertainty":"inferred"},"geometry":{"type":"Polygon","coordinates":[[[1400,3200],[1800,7000],[3800,8500],[5900,7700],[6500,5000],[5600,2500],[3000,2100],[1400,3200]]]}},
    {"type":"Feature","id":"orc-clans-draenor-focus-research","properties":{"name":"Orc clans narrative focus","contentStatus":"research","styleRole":"site","geographicCertainty":"unknown"},"geometry":{"type":"Point","coordinates":[3300,5600]}},
    {"type":"Feature","id":"draenei-draenor-region-research","properties":{"name":"Draenei settlement region (broad reconstruction)","contentStatus":"research","styleRole":"influence","geographicCertainty":"inferred"},"geometry":{"type":"Polygon","coordinates":[[[5700,3600],[6100,7400],[8500,8000],[9000,4800],[7900,3000],[5700,3600]]]}},
    {"type":"Feature","id":"draenei-draenor-focus-research","properties":{"name":"Draenei of Draenor narrative focus","contentStatus":"research","styleRole":"site","geographicCertainty":"unknown"},"geometry":{"type":"Point","coordinates":[7500,6500]}},
    {"type":"Feature","id":"shattrath-draenor-focus-research","properties":{"name":"Shattrath (approximate atlas focus)","contentStatus":"research","styleRole":"site","geographicCertainty":"approximate"},"geometry":{"type":"Point","coordinates":[7600,5100]}},
    {"type":"Feature","id":"durotan-draenor-focus-research","properties":{"name":"Durotan narrative focus","contentStatus":"research","styleRole":"site","geographicCertainty":"unknown"},"geometry":{"type":"Point","coordinates":[2700,6500]}},
    {"type":"Feature","id":"kiljaeden-draenor-focus-research","properties":{"name":"Kil'jaeden relational focus","contentStatus":"research","styleRole":"site","geographicCertainty":"unknown"},"geometry":{"type":"Point","coordinates":[7400,8500]}},
    {"type":"Feature","id":"nerzhul-draenor-focus-research","properties":{"name":"Ner'zhul narrative focus","contentStatus":"research","styleRole":"site","geographicCertainty":"unknown"},"geometry":{"type":"Point","coordinates":[4400,6200]}},
    {"type":"Feature","id":"guldan-draenor-focus-research","properties":{"name":"Gul'dan narrative focus","contentStatus":"research","styleRole":"site","geographicCertainty":"unknown"},"geometry":{"type":"Point","coordinates":[5000,4900]}},
    {"type":"Feature","id":"mannoroth-draenor-focus-research","properties":{"name":"Mannoroth blood pact narrative focus","contentStatus":"research","styleRole":"site","geographicCertainty":"unknown"},"geometry":{"type":"Point","coordinates":[5600,3200]}},
    {"type":"Feature","id":"shadow-council-draenor-focus-research","properties":{"name":"Shadow Council narrative focus","contentStatus":"research","styleRole":"site","geographicCertainty":"unknown"},"geometry":{"type":"Point","coordinates":[5200,4300]}},
    {"type":"Feature","id":"old-horde-draenor-focus-research","properties":{"name":"Old Horde narrative focus on Draenor","contentStatus":"research","styleRole":"site","geographicCertainty":"unknown"},"geometry":{"type":"Point","coordinates":[4700,3600]}},
    {"type":"Feature","id":"dark-portal-draenor-focus-research","properties":{"name":"Dark Portal on Draenor (approximate atlas focus)","contentStatus":"research","styleRole":"site","geographicCertainty":"approximate"},"geometry":{"type":"Point","coordinates":[5700,1800]}},
    {"type":"Feature","id":"horde-draenor-campaign-route-research","properties":{"name":"Horde campaign against the draenei (interpretive)","contentStatus":"research","styleRole":"route","geographicCertainty":"inferred"},"geometry":{"type":"LineString","coordinates":[[3000,6500],[4300,5800],[5700,5400],[6800,5200],[7600,5100]]}},
    {"type":"Feature","id":"dark-portal-azeroth-focus-research","properties":{"name":"Dark Portal on Azeroth (approximate atlas focus)","contentStatus":"research","styleRole":"site","geographicCertainty":"approximate"},"geometry":{"type":"Point","coordinates":[7000,2300]}},
    {"type":"Feature","id":"stormwind-city-era-six-focus-research","properties":{"name":"Stormwind City (approximate atlas focus)","contentStatus":"research","styleRole":"site","geographicCertainty":"approximate"},"geometry":{"type":"Point","coordinates":[7350,3200]}},
    {"type":"Feature","id":"stormwind-kingdom-region-research","properties":{"name":"Kingdom of Stormwind (broad reconstruction)","contentStatus":"research","styleRole":"influence","geographicCertainty":"inferred"},"geometry":{"type":"Polygon","coordinates":[[[6100,2000],[7600,1800],[8500,3400],[7800,4700],[6300,4300],[6100,2000]]]}},
    {"type":"Feature","id":"old-horde-first-war-focus-research","properties":{"name":"Old Horde First War narrative focus","contentStatus":"research","styleRole":"site","geographicCertainty":"unknown"},"geometry":{"type":"Point","coordinates":[5700,4100]}},
    {"type":"Feature","id":"blackhand-first-war-focus-research","properties":{"name":"Blackhand narrative focus","contentStatus":"research","styleRole":"site","geographicCertainty":"unknown"},"geometry":{"type":"Point","coordinates":[5300,3400]}},
    {"type":"Feature","id":"medivh-first-war-focus-research","properties":{"name":"Medivh narrative focus","contentStatus":"research","styleRole":"site","geographicCertainty":"unknown"},"geometry":{"type":"Point","coordinates":[8400,3600]}},
    {"type":"Feature","id":"lothar-first-war-focus-research","properties":{"name":"Anduin Lothar First War narrative focus","contentStatus":"research","styleRole":"site","geographicCertainty":"unknown"},"geometry":{"type":"Point","coordinates":[8200,4700]}},
    {"type":"Feature","id":"first-war-advance-route-research","properties":{"name":"First War Horde advance (interpretive)","contentStatus":"research","styleRole":"route","geographicCertainty":"inferred"},"geometry":{"type":"LineString","coordinates":[[7000,2300],[6900,2700],[7200,3000],[7350,3200]]}},
    {"type":"Feature","id":"lordaeron-era-six-focus-research","properties":{"name":"Lordaeron (approximate atlas focus)","contentStatus":"research","styleRole":"site","geographicCertainty":"approximate"},"geometry":{"type":"Point","coordinates":[6900,7000]}},
    {"type":"Feature","id":"blackrock-spire-era-six-focus-research","properties":{"name":"Blackrock Spire (approximate atlas focus)","contentStatus":"research","styleRole":"site","geographicCertainty":"approximate"},"geometry":{"type":"Point","coordinates":[6600,4500]}},
    {"type":"Feature","id":"alliance-lordaeron-region-research","properties":{"name":"Alliance of Lordaeron coalition (broad strategic extent)","contentStatus":"research","styleRole":"influence","geographicCertainty":"inferred"},"geometry":{"type":"Polygon","coordinates":[[[5600,4200],[6100,7800],[8200,8200],[9000,6200],[8200,4300],[5600,4200]]]}},
    {"type":"Feature","id":"alliance-lordaeron-focus-research","properties":{"name":"Alliance of Lordaeron narrative focus","contentStatus":"research","styleRole":"site","geographicCertainty":"unknown"},"geometry":{"type":"Point","coordinates":[7200,6800]}},
    {"type":"Feature","id":"old-horde-second-war-focus-research","properties":{"name":"Old Horde Second War narrative focus","contentStatus":"research","styleRole":"site","geographicCertainty":"unknown"},"geometry":{"type":"Point","coordinates":[7000,5000]}},
    {"type":"Feature","id":"orgrim-second-war-focus-research","properties":{"name":"Orgrim Doomhammer narrative focus","contentStatus":"research","styleRole":"site","geographicCertainty":"unknown"},"geometry":{"type":"Point","coordinates":[6600,5200]}},
    {"type":"Feature","id":"lothar-second-war-focus-research","properties":{"name":"Anduin Lothar Second War narrative focus","contentStatus":"research","styleRole":"site","geographicCertainty":"unknown"},"geometry":{"type":"Point","coordinates":[7000,5700]}},
    {"type":"Feature","id":"turalyon-second-war-focus-research","properties":{"name":"Turalyon narrative focus","contentStatus":"research","styleRole":"site","geographicCertainty":"unknown"},"geometry":{"type":"Point","coordinates":[7500,5400]}},
    {"type":"Feature","id":"second-war-horde-offensive-route-research","properties":{"name":"Second War Horde northern offensive (interpretive)","contentStatus":"research","styleRole":"route","geographicCertainty":"inferred"},"geometry":{"type":"LineString","coordinates":[[7000,2300],[6600,4500],[6200,5600],[6800,6800],[7600,7300]]}},
    {"type":"Feature","id":"second-war-alliance-counteroffensive-route-research","properties":{"name":"Second War Alliance counteroffensive (interpretive)","contentStatus":"research","styleRole":"route","geographicCertainty":"inferred"},"geometry":{"type":"LineString","coordinates":[[7200,6800],[7000,5700],[6600,4500],[6800,3300],[7000,2300]]}}
  ]
}
