{
  "type": "FeatureCollection",
  "features": [
    {"type":"Feature","id":"lordaeron-era-seven-region-research","properties":{"name":"Lordaeron plague and Scourge crisis (broad extent)","contentStatus":"research","styleRole":"influence","geographicCertainty":"inferred"},"geometry":{"type":"Polygon","coordinates":[[[7600,5600],[7700,7900],[9200,8300],[9600,6500],[9000,5400],[7600,5600]]]}},
    {"type":"Feature","id":"lordaeron-era-seven-focus-research","properties":{"name":"Lordaeron (approximate atlas focus)","contentStatus":"research","styleRole":"site","geographicCertainty":"approximate"},"geometry":{"type":"Point","coordinates":[8300,6900]}},
    {"type":"Feature","id":"stratholme-focus-research","properties":{"name":"Stratholme (approximate atlas focus)","contentStatus":"research","styleRole":"site","geographicCertainty":"approximate"},"geometry":{"type":"Point","coordinates":[8850,6700]}},
    {"type":"Feature","id":"quelthalas-era-seven-focus-research","properties":{"name":"Quel'Thalas (approximate atlas focus)","contentStatus":"research","styleRole":"site","geographicCertainty":"approximate"},"geometry":{"type":"Point","coordinates":[8700,7900]}},
    {"type":"Feature","id":"sunwell-era-seven-focus-research","properties":{"name":"Sunwell (approximate atlas focus)","contentStatus":"research","styleRole":"site","geographicCertainty":"approximate"},"geometry":{"type":"Point","coordinates":[9000,8100]}},
    {"type":"Feature","id":"northrend-expedition-focus-research","properties":{"name":"Arthas's Northrend expedition (broad focus)","contentStatus":"research","styleRole":"site","geographicCertainty":"inferred"},"geometry":{"type":"Point","coordinates":[5600,8350]}},
    {"type":"Feature","id":"arthas-crisis-focus-research","properties":{"name":"Arthas northern-crisis narrative focus","contentStatus":"research","styleRole":"site","geographicCertainty":"unknown"},"geometry":{"type":"Point","coordinates":[8050,6200]}},
    {"type":"Feature","id":"jaina-crisis-focus-research","properties":{"name":"Jaina northern-crisis narrative focus","contentStatus":"research","styleRole":"site","geographicCertainty":"unknown"},"geometry":{"type":"Point","coordinates":[7600,6500]}},
    {"type":"Feature","id":"kelthuzad-crisis-focus-research","properties":{"name":"Kel'Thuzad Scourge narrative focus","contentStatus":"research","styleRole":"site","geographicCertainty":"unknown"},"geometry":{"type":"Point","coordinates":[9000,6200]}},
    {"type":"Feature","id":"scourge-crisis-focus-research","properties":{"name":"Scourge northern-crisis narrative focus","contentStatus":"research","styleRole":"site","geographicCertainty":"unknown"},"geometry":{"type":"Point","coordinates":[8800,5900]}},
    {"type":"Feature","id":"sylvanas-crisis-focus-research","properties":{"name":"Sylvanas Quel'Thalas narrative focus","contentStatus":"research","styleRole":"site","geographicCertainty":"unknown"},"geometry":{"type":"Point","coordinates":[9300,7600]}},
    {"type":"Feature","id":"scourge-advance-route-research","properties":{"name":"Scourge advance through the northern kingdoms (interpretive)","contentStatus":"research","styleRole":"route","geographicCertainty":"inferred"},"geometry":{"type":"LineString","coordinates":[[8100,5900],[8500,6500],[8300,7000],[8700,7900],[9000,8100]]}},
    {"type":"Feature","id":"arthas-northrend-route-research","properties":{"name":"Arthas's pursuit toward Northrend (interpretive)","contentStatus":"research","styleRole":"route","geographicCertainty":"inferred"},"geometry":{"type":"LineString","coordinates":[[8500,6500],[7600,7600],[6500,8200],[5600,8350]]}},
    {"type":"Feature","id":"kalimdor-era-seven-region-research","properties":{"name":"Kalimdor Third War convergence (broad extent)","contentStatus":"research","styleRole":"influence","geographicCertainty":"inferred"},"geometry":{"type":"Polygon","coordinates":[[[900,2100],[1000,7500],[3500,8200],[4400,5600],[3800,1900],[900,2100]]]}},
    {"type":"Feature","id":"mount-hyjal-era-seven-focus-research","properties":{"name":"Mount Hyjal (approximate atlas focus)","contentStatus":"research","styleRole":"site","geographicCertainty":"approximate"},"geometry":{"type":"Point","coordinates":[2500,7200]}},
    {"type":"Feature","id":"nordrassil-era-seven-focus-research","properties":{"name":"Nordrassil (approximate atlas focus)","contentStatus":"research","styleRole":"site","geographicCertainty":"approximate"},"geometry":{"type":"Point","coordinates":[2700,7500]}},
    {"type":"Feature","id":"thrall-hyjal-focus-research","properties":{"name":"Thrall Kalimdor narrative focus","contentStatus":"research","styleRole":"site","geographicCertainty":"unknown"},"geometry":{"type":"Point","coordinates":[1800,4000]}},
    {"type":"Feature","id":"new-horde-hyjal-focus-research","properties":{"name":"New Horde Kalimdor narrative focus","contentStatus":"research","styleRole":"site","geographicCertainty":"unknown"},"geometry":{"type":"Point","coordinates":[1500,3800]}},
    {"type":"Feature","id":"jaina-hyjal-focus-research","properties":{"name":"Jaina Kalimdor narrative focus","contentStatus":"research","styleRole":"site","geographicCertainty":"unknown"},"geometry":{"type":"Point","coordinates":[3200,4300]}},
    {"type":"Feature","id":"grom-hyjal-focus-research","properties":{"name":"Grom corruption-and-liberation narrative focus","contentStatus":"research","styleRole":"site","geographicCertainty":"unknown"},"geometry":{"type":"Point","coordinates":[1400,5200]}},
    {"type":"Feature","id":"mannoroth-hyjal-focus-research","properties":{"name":"Mannoroth narrative focus","contentStatus":"research","styleRole":"site","geographicCertainty":"unknown"},"geometry":{"type":"Point","coordinates":[1900,5500]}},
    {"type":"Feature","id":"archimonde-hyjal-focus-research","properties":{"name":"Archimonde Hyjal narrative focus","contentStatus":"research","styleRole":"site","geographicCertainty":"unknown"},"geometry":{"type":"Point","coordinates":[3000,6800]}},
    {"type":"Feature","id":"burning-legion-hyjal-focus-research","properties":{"name":"Burning Legion Hyjal narrative focus","contentStatus":"research","styleRole":"site","geographicCertainty":"unknown"},"geometry":{"type":"Point","coordinates":[3500,6200]}},
    {"type":"Feature","id":"malfurion-hyjal-focus-research","properties":{"name":"Malfurion Hyjal narrative focus","contentStatus":"research","styleRole":"site","geographicCertainty":"unknown"},"geometry":{"type":"Point","coordinates":[2200,7600]}},
    {"type":"Feature","id":"tyrande-hyjal-focus-research","properties":{"name":"Tyrande Hyjal narrative focus","contentStatus":"research","styleRole":"site","geographicCertainty":"unknown"},"geometry":{"type":"Point","coordinates":[3300,7300]}},
    {"type":"Feature","id":"hyjal-defenders-focus-research","properties":{"name":"Defenders of Mount Hyjal coalition focus","contentStatus":"research","styleRole":"site","geographicCertainty":"unknown"},"geometry":{"type":"Point","coordinates":[2700,6500]}},
    {"type":"Feature","id":"horde-westward-route-research","properties":{"name":"New Horde westward passage (interpretive)","contentStatus":"research","styleRole":"route","geographicCertainty":"inferred"},"geometry":{"type":"LineString","coordinates":[[8000,4300],[6200,4000],[4300,3600],[2500,3500],[1800,4000]]}},
    {"type":"Feature","id":"legion-kalimdor-route-research","properties":{"name":"Legion and Scourge pressure toward Hyjal (interpretive)","contentStatus":"research","styleRole":"route","geographicCertainty":"inferred"},"geometry":{"type":"LineString","coordinates":[[4000,3300],[3500,4700],[3200,5900],[2800,6800],[2500,7200]]}},
    {"type":"Feature","id":"hyjal-convergence-route-research","properties":{"name":"Mortal and kaldorei defense converges on Hyjal (interpretive)","contentStatus":"research","styleRole":"route","geographicCertainty":"inferred"},"geometry":{"type":"LineString","coordinates":[[1800,4000],[2300,5200],[2800,6200],[2500,7200]]}},
    {"type":"Feature","id":"outland-era-seven-region-research","properties":{"name":"Illidan's Outland sphere of control (broad reconstruction)","contentStatus":"research","styleRole":"influence","geographicCertainty":"inferred"},"geometry":{"type":"Polygon","coordinates":[[[1500,2500],[1700,7600],[4800,8800],[8400,7200],[8800,3100],[5200,1400],[1500,2500]]]}},
    {"type":"Feature","id":"illidan-outland-focus-research","properties":{"name":"Illidan Outland narrative focus","contentStatus":"research","styleRole":"site","geographicCertainty":"unknown"},"geometry":{"type":"Point","coordinates":[5200,5300]}},
    {"type":"Feature","id":"illidan-coalition-outland-focus-research","properties":{"name":"Illidan's Outland coalition narrative focus","contentStatus":"research","styleRole":"site","geographicCertainty":"unknown"},"geometry":{"type":"Point","coordinates":[5700,4800]}},
    {"type":"Feature","id":"outland-portal-campaign-route-research","properties":{"name":"Outland portal-sealing campaign (interpretive)","contentStatus":"research","styleRole":"route","geographicCertainty":"inferred"},"geometry":{"type":"LineString","coordinates":[[2400,6500],[3900,7600],[5700,6700],[7600,5200],[6500,3000],[4200,2700]]}},
    {"type":"Feature","id":"icecrown-era-seven-focus-research","properties":{"name":"Icecrown (approximate atlas focus)","contentStatus":"research","styleRole":"site","geographicCertainty":"approximate"},"geometry":{"type":"Point","coordinates":[5200,8700]}},
    {"type":"Feature","id":"frozen-throne-focus-research","properties":{"name":"Frozen Throne (approximate atlas focus)","contentStatus":"research","styleRole":"site","geographicCertainty":"approximate"},"geometry":{"type":"Point","coordinates":[5000,9000]}},
    {"type":"Feature","id":"arthas-icecrown-focus-research","properties":{"name":"Arthas Icecrown narrative focus","contentStatus":"research","styleRole":"site","geographicCertainty":"unknown"},"geometry":{"type":"Point","coordinates":[5600,8500]}},
    {"type":"Feature","id":"illidan-icecrown-focus-research","properties":{"name":"Illidan Icecrown narrative focus","contentStatus":"research","styleRole":"site","geographicCertainty":"unknown"},"geometry":{"type":"Point","coordinates":[4400,8400]}},
    {"type":"Feature","id":"forsaken-lordaeron-focus-research","properties":{"name":"Forsaken emergence narrative focus","contentStatus":"research","styleRole":"site","geographicCertainty":"unknown"},"geometry":{"type":"Point","coordinates":[7900,7000]}},
    {"type":"Feature","id":"icecrown-race-route-research","properties":{"name":"Race for the Frozen Throne (interpretive)","contentStatus":"research","styleRole":"route","geographicCertainty":"inferred"},"geometry":{"type":"LineString","coordinates":[[4300,7800],[4600,8300],[5000,9000],[5600,8500]]}}
  ]
}
